TEVEL2-6                
1 63215U 25052F   26068.64958975  .00021046  00000+0  70909-3 0  9996
2 63215  97.4016 325.0381 0004769  95.6604 264.5181 15.30760889 54861
STARLINK-35752          
1 66275U 25247L   26068.63367614  .00036408  00000+0  12356-2 0  9993
2 66275  53.1577 191.8054 0001290  62.6386 297.4746 15.30193397 21022
